start=new Date('2022-04-23T00:00:00.000Z').valueOf();
sats=[{"CLASSIFICATION_TYPE":"U","REF_FRAME":"TEME","GP_ID":"201822854","TLE_LINE2":"2 45748  53.0533 118.9050 0001698  50.6946 309.4194 15.06407377102572","NORAD_CAT_ID":"45748","FILE":"3411458","MEAN_MOTION_DOT":"0.00000757","PERIAPSIS":"546.015","BSTAR":"0.00006973100000","TLE_LINE1":"1 45748U 20038U   22112.43730167  .00000757  00000-0  69731-4 0  9999","PERIOD":"95.592","INCLINATION":"53.0533","RCS_SIZE":"LARGE","OBJECT_ID":"2020-038U","MEAN_MOTION":"15.06407377","APOAPSIS":"548.367","OBJECT_NAME":"STARLINK-1507","MEAN_ELEMENT_THEORY":"SGP4","RA_OF_ASC_NODE":"118.9050","MEAN_ANOMALY":"309.4194","REV_AT_EPOCH":"10257","TIME_SYSTEM":"UTC","SEMIMAJOR_AXIS":"6925.326","DECAY_DATE":null,"CENTER_NAME":"EARTH","ELEMENT_SET_NO":"999","EPOCH":"2022-04-22T10:29:42.864288","ECCENTRICITY":"0.00016980","LAUNCH_DATE":"2020-06-13","MEAN_MOTION_DDOT":"0.0000000000000","COUNTRY_CODE":"US","EPHEMERIS_TYPE":"0","SITE":"AFETR","OBJECT_TYPE":"PAYLOAD","ARG_OF_PERICENTER":"50.6946"},{"PERIOD":"95.592","TLE_LINE1":"1 45750U 20038W   22112.26685802 -.00000514  00000-0 -15618-4 0  9996","RCS_SIZE":"LARGE","INCLINATION":"53.0538","OBJECT_ID":"2020-038W","MEAN_ELEMENT_THEORY":"SGP4","RA_OF_ASC_NODE":"99.6783","MEAN_MOTION":"15.06395927","APOAPSIS":"548.457","OBJECT_NAME":"STARLINK-1391","CLASSIFICATION_TYPE":"U","TLE_LINE2":"2 45750  53.0538  99.6783 0001778  47.1153 312.9985 15.06395927102842","GP_ID":"201821603","NORAD_CAT_ID":"45750","FILE":"3411458","REF_FRAME":"TEME","PERIAPSIS":"545.995","MEAN_MOTION_DOT":"-0.00000514","BSTAR":"-0.00001561800000","LAUNCH_DATE":"2020-06-13","MEAN_MOTION_DDOT":"0.0000000000000","COUNTRY_CODE":"US","SITE":"AFETR","OBJECT_TYPE":"PAYLOAD","EPHEMERIS_TYPE":"0","ARG_OF_PERICENTER":"47.1153","SEMIMAJOR_AXIS":"6925.361","TIME_SYSTEM":"UTC","MEAN_ANOMALY":"312.9985","REV_AT_EPOCH":"10284","ELEMENT_SET_NO":"999","DECAY_DATE":null,"CENTER_NAME":"EARTH","EPOCH":"2022-04-22T06:24:16.532928","ECCENTRICITY":"0.00017780"},{"OBJECT_TYPE":"PAYLOAD","SITE":"AFETR","EPHEMERIS_TYPE":"0","ARG_OF_PERICENTER":"48.2587","LAUNCH_DATE":"2020-06-13","MEAN_MOTION_DDOT":"0.0000000000000","COUNTRY_CODE":"US","EPOCH":"2022-04-22T11:05:35.201472","ECCENTRICITY":"0.00019180","MEAN_ANOMALY":"311.8565","REV_AT_EPOCH":"10287","TIME_SYSTEM":"UTC","SEMIMAJOR_AXIS":"6925.330","DECAY_DATE":null,"CENTER_NAME":"EARTH","ELEMENT_SET_NO":"999","OBJECT_ID":"2020-038X","MEAN_MOTION":"15.06406183","APOAPSIS":"548.523","OBJECT_NAME":"STARLINK-1464","MEAN_ELEMENT_THEORY":"SGP4","RA_OF_ASC_NODE":"98.8018","TLE_LINE1":"1 45751U 20038X   22112.46221298 -.00000879  00000-0 -40123-4 0  9997","PERIOD":"95.592","INCLINATION":"53.0555","RCS_SIZE":"LARGE","MEAN_MOTION_DOT":"-0.00000879","PERIAPSIS":"545.866","BSTAR":"-0.00004012300000","CLASSIFICATION_TYPE":"U","REF_FRAME":"TEME","TLE_LINE2":"2 45751  53.0555  98.8018 0001918  48.2587 311.8565 15.06406183102875","NORAD_CAT_ID":"45751","GP_ID":"201821853","FILE":"3411458"},{"EPOCH":"2022-04-22T10:58:13.789056","ECCENTRICITY":"0.00039910","SEMIMAJOR_AXIS":"6717.732","TIME_SYSTEM":"UTC","MEAN_ANOMALY":"28.2845","REV_AT_EPOCH":"10680","ELEMENT_SET_NO":"999","DECAY_DATE":null,"CENTER_NAME":"EARTH","OBJECT_TYPE":"PAYLOAD","SITE":"AFETR","EPHEMERIS_TYPE":"0","ARG_OF_PERICENTER":"331.7957","LAUNCH_DATE":"2020-06-13","COUNTRY_CODE":"US","MEAN_MOTION_DDOT":"0.0000000000000","PERIAPSIS":"336.915","MEAN_MOTION_DOT":"0.00033468","BSTAR":"0.00020719000000","CLASSIFICATION_TYPE":"U","TLE_LINE2":"2 45752  52.9983 174.7617 0003991 331.7957  28.2845 15.76771638106806","NORAD_CAT_ID":"45752","GP_ID":"201822105","FILE":"3411458","REF_FRAME":"TEME","OBJECT_ID":"2020-038Y","MEAN_ELEMENT_THEORY":"SGP4","RA_OF_ASC_NODE":"174.7617","APOAPSIS":"342.278","MEAN_MOTION":"15.76771638","OBJECT_NAME":"STARLINK-1469","PERIOD":"91.326","TLE_LINE1":"1 45752U 20038Y   22112.45710404  .00033468  00000-0  20719-3 0  9995","INCLINATION":"52.9983","RCS_SIZE":"LARGE"},{"REF_FRAME":"TEME","TLE_LINE2":"2 45753  53.0548  97.8670 0002199  50.5623 309.5560 15.06404108104013","NORAD_CAT_ID":"45753","GP_ID":"201829868","FILE":"3411552","CLASSIFICATION_TYPE":"U","BSTAR":"0.00018698000000","MEAN_MOTION_DOT":"0.00002505","PERIAPSIS":"545.678","INCLINATION":"53.0548","RCS_SIZE":"LARGE","TLE_LINE1":"1 45753U 20038Z   22112.67230523  .00002505  00000-0  18698-3 0  9990","PERIOD":"95.592","MEAN_MOTION":"15.06404108","APOAPSIS":"548.724","OBJECT_NAME":"STARLINK-1476","MEAN_ELEMENT_THEORY":"SGP4","RA_OF_ASC_NODE":"97.8670","OBJECT_ID":"2020-038Z","DECAY_DATE":null,"CENTER_NAME":"EARTH","ELEMENT_SET_NO":"999","MEAN_ANOMALY":"309.5560","REV_AT_EPOCH":"10401","SEMIMAJOR_AXIS":"6925.336","TIME_SYSTEM":"UTC","ECCENTRICITY":"0.00021990","EPOCH":"2022-04-22T16:08:07.171872","LAUNCH_DATE":"2020-06-13","COUNTRY_CODE":"US","MEAN_MOTION_DDOT":"0.0000000000000","EPHEMERIS_TYPE":"0","SITE":"AFETR","OBJECT_TYPE":"PAYLOAD","ARG_OF_PERICENTER":"50.5623"},{"ARG_OF_PERICENTER":"60.7462","OBJECT_TYPE":"PAYLOAD","SITE":"AFETR","EPHEMERIS_TYPE":"0","COUNTRY_CODE":"US","MEAN_MOTION_DDOT":"0.0000000000000","LAUNCH_DATE":"2020-06-13","ECCENTRICITY":"0.00018540","EPOCH":"2022-04-22T11:26:48.427296","CENTER_NAME":"EARTH","DECAY_DATE":null,"ELEMENT_SET_NO":"999","REV_AT_EPOCH":"10287","MEAN_ANOMALY":"299.3713","SEMIMAJOR_AXIS":"6925.322","TIME_SYSTEM":"UTC","OBJECT_NAME":"STARLINK-1477","MEAN_MOTION":"15.06408648","APOAPSIS":"548.471","RA_OF_ASC_NODE":"98.7312","MEAN_ELEMENT_THEORY":"SGP4","OBJECT_ID":"2020-038AA","RCS_SIZE":"LARGE","INCLINATION":"53.0533","TLE_LINE1":"1 45754U 20038AA  22112.47694939  .00003057  00000-0  22402-3 0  9995","PERIOD":"95.592","BSTAR":"0.00022402000000","MEAN_MOTION_DOT":"0.00003057","PERIAPSIS":"545.903","REF_FRAME":"TEME","FILE":"3411458","TLE_LINE2":"2 45754  53.0533  98.7312 0001854  60.7462 299.3713 15.06408648102873","NORAD_CAT_ID":"45754","GP_ID":"201821104","CLASSIFICATION_TYPE":"U"},{"ECCENTRICITY":"0.00019980","EPOCH":"2022-04-22T18:15:30.534912","DECAY_DATE":null,"CENTER_NAME":"EARTH","ELEMENT_SET_NO":"999","MEAN_ANOMALY":"303.8705","REV_AT_EPOCH":"10402","SEMIMAJOR_AXIS":"6925.361","TIME_SYSTEM":"UTC","SITE":"AFETR","EPHEMERIS_TYPE":"0","OBJECT_TYPE":"PAYLOAD","ARG_OF_PERICENTER":"56.2474","LAUNCH_DATE":"2020-06-13","MEAN_MOTION_DDOT":"0.0000000000000","COUNTRY_CODE":"US","BSTAR":"0.00012078000000","MEAN_MOTION_DOT":"0.00001518","PERIAPSIS":"545.842","REF_FRAME":"TEME","NORAD_CAT_ID":"45755","TLE_LINE2":"2 45755  53.0546  97.4696 0001998  56.2474 303.8705 15.06395981104027","GP_ID":"201829377","FILE":"3411562","CLASSIFICATION_TYPE":"U","APOAPSIS":"548.610","MEAN_MOTION":"15.06395981","OBJECT_NAME":"STARLINK-1478","MEAN_ELEMENT_THEORY":"SGP4","RA_OF_ASC_NODE":"97.4696","OBJECT_ID":"2020-038AB","INCLINATION":"53.0546","RCS_SIZE":"LARGE","TLE_LINE1":"1 45755U 20038AB  22112.76077008  .00001518  00000-0  12078-3 0  9998","PERIOD":"95.592"},{"REF_FRAME":"TEME","GP_ID":"201829417","TLE_LINE2":"2 45756  53.0544  97.7794 0001870  48.6522 311.4627 15.06401464104017","NORAD_CAT_ID":"45756","FILE":"3411555","CLASSIFICATION_TYPE":"U","BSTAR":"0.00003283800000","MEAN_MOTION_DOT":"0.00000208","PERIAPSIS":"545.914","RCS_SIZE":"LARGE","INCLINATION":"53.0544","TLE_LINE1":"1 45756U 20038AC  22112.69073733  .00000208  00000-0  32838-4 0  9994","PERIOD":"95.592","MEAN_MOTION":"15.06401464","APOAPSIS":"548.504","OBJECT_NAME":"STARLINK-1484","MEAN_ELEMENT_THEORY":"SGP4","RA_OF_ASC_NODE":"97.7794","OBJECT_ID":"2020-038AC","DECAY_DATE":null,"CENTER_NAME":"EARTH","ELEMENT_SET_NO":"999","MEAN_ANOMALY":"311.4627","REV_AT_EPOCH":"10401","SEMIMAJOR_AXIS":"6925.344","TIME_SYSTEM":"UTC","ECCENTRICITY":"0.00018700","EPOCH":"2022-04-22T16:34:39.705312","LAUNCH_DATE":"2020-06-13","MEAN_MOTION_DDOT":"0.0000000000000","COUNTRY_CODE":"US","SITE":"AFETR","OBJECT_TYPE":"PAYLOAD","EPHEMERIS_TYPE":"0","ARG_OF_PERICENTER":"48.6522"},{"MEAN_MOTION_DOT":"0.00000968","PERIAPSIS":"545.793","BSTAR":"0.00008389000000","CLASSIFICATION_TYPE":"U","REF_FRAME":"TEME","FILE":"3411458","TLE_LINE2":"2 45757  53.0537  98.8836 0002022  47.5039 312.6120 15.06406748102851","NORAD_CAT_ID":"45757","GP_ID":"201822855","OBJECT_ID":"2020-038AD","OBJECT_NAME":"STARLINK-1486","APOAPSIS":"548.593","MEAN_MOTION":"15.06406748","RA_OF_ASC_NODE":"98.8836","MEAN_ELEMENT_THEORY":"SGP4","TLE_LINE1":"1 45757U 20038AD  22112.44377524  .00000968  00000-0  83890-4 0  9990","PERIOD":"95.592","INCLINATION":"53.0537","RCS_SIZE":"LARGE","EPOCH":"2022-04-22T10:39:02.180736","ECCENTRICITY":"0.00020220","REV_AT_EPOCH":"10285","MEAN_ANOMALY":"312.6120","SEMIMAJOR_AXIS":"6925.328","TIME_SYSTEM":"UTC","CENTER_NAME":"EARTH","DECAY_DATE":null,"ELEMENT_SET_NO":"999","ARG_OF_PERICENTER":"47.5039","SITE":"AFETR","OBJECT_TYPE":"PAYLOAD","EPHEMERIS_TYPE":"0","MEAN_MOTION_DDOT":"0.0000000000000","COUNTRY_CODE":"US","LAUNCH_DATE":"2020-06-13"},{"COUNTRY_CODE":"US","MEAN_MOTION_DDOT":"0.0000000000000","LAUNCH_DATE":"2020-06-13","ARG_OF_PERICENTER":"49.4497","OBJECT_TYPE":"PAYLOAD","SITE":"AFETR","EPHEMERIS_TYPE":"0","ELEMENT_SET_NO":"999","CENTER_NAME":"EARTH","DECAY_DATE":null,"TIME_SYSTEM":"UTC","SEMIMAJOR_AXIS":"6925.342","REV_AT_EPOCH":"10283","MEAN_ANOMALY":"310.6674","ECCENTRICITY":"0.00020920","EPOCH":"2022-04-22T07:17:20.945760","RCS_SIZE":"LARGE","INCLINATION":"53.0534","PERIOD":"95.592","TLE_LINE1":"1 45758U 20038AE  22112.30371465  .00001131  00000-0  94855-4 0  9990","RA_OF_ASC_NODE":"99.5077","MEAN_ELEMENT_THEORY":"SGP4","OBJECT_NAME":"STARLINK-1487","MEAN_MOTION":"15.06402119","APOAPSIS":"548.656","OBJECT_ID":"2020-038AE","FILE":"3411458","NORAD_CAT_ID":"45758","TLE_LINE2":"2 45758  53.0534  99.5077 0002092  49.4497 310.6674 15.06402119102838","GP_ID":"201821604","REF_FRAME":"TEME","CLASSIFICATION_TYPE":"U","BSTAR":"0.00009485500000","PERIAPSIS":"545.758","MEAN_MOTION_DOT":"0.00001131"}];
